IRIDIUM 171             
1 43929U 19002H   25020.01387374  .00000007  00000+0 -46751-5 0  9996
2 43929  86.3984 208.2485 0002311  92.3875 267.7586 14.34216992315402
IRIDIUM 170             
1 43930U 19002J   25020.00903332  .00000815  00000+0  12534-3 0  9991
2 43930  86.6098 208.0320 0001981  91.1820 268.9624 14.72246224323754
IRIDIUM 167             
1 43931U 19002K   25020.07730219  .00000007  00000+0 -47398-5 0  9993
2 43931  86.3976 207.9907 0002148 100.4628 259.6810 14.34217641315419
IRIDIUM 181             
1 56726U 23068S   25019.79164518  .00000866  00000+0  25119-3 0  9993
2 56726  86.4492 271.2385 0002697  89.1641 270.9869 14.43310169 88382
IRIDIUM 177             
1 56727U 23068T   25020.02363899  .00001106  00000+0  14214-3 0  9997
2 56727  86.1966 212.3948 0001876  85.0714 275.0721 14.80213591 90457
IRIDIUM 174             
1 56728U 23068U   25020.49136525  .00000037  00000+0  13321-5 0  9995
2 56728  86.1967 212.2942 0002404  85.8505 274.2990 14.80230382 90520
IRIDIUM 178             
1 56729U 23068V   25020.55354465  .00003043  00000+0  39691-3 0  9994
2 56729  86.5750 240.0081 0002971  78.1467 282.0087 14.80239769 90532
IRIDIUM 179             
1 56730U 23068W   25020.14247745  .00002841  00000+0  37025-3 0  9997
2 56730  86.6760 247.0495 0002318  86.3216 273.8271 14.80247419 90477
